[
    {
        "Altitude(m)": 704091.088276605,
        "Argument of Periapsis(deg)": 0.010251109067964361,
        "Eccentricity": 0.0,
        "Inclination(deg)": 45.0,
        "Latitude(deg)": -4.304964348391264,
        "Longitude(deg)": -164.98732156423404,
        "Mean Anomaly(deg)": -5.983705017267311,
        "RAAN(deg)": 299.99032325268763,
        "Satellite Name": "Constellation 1 1341",
        "Satellite Number": 1341,
        "Semi-Major Axis(m)": 7083131.272910544,
        "Time(s)": 171
    },
    {
        "Altitude(m)": 704083.4793723308,
        "Argument of Periapsis(deg)": 0.010311057074209765,
        "Eccentricity": 0.0,
        "Inclination(deg)": 45.0,
        "Latitude(deg)": -4.261878484197745,
        "Longitude(deg)": -164.94834121002214,
        "Mean Anomaly(deg)": -5.9230038770174245,
        "RAAN(deg)": 299.9902666635221,
        "Satellite Name": "Constellation 1 1341",
        "Satellite Number": 1341,
        "Semi-Major Axis(m)": 7083131.272910544,
        "Time(s)": 172
    },
    {
        "Altitude(m)": 704075.8900384933,
        "Argument of Periapsis(deg)": 0.010371005080455171,
        "Eccentricity": 0.0,
        "Inclination(deg)": 45.0,
        "Latitude(deg)": -4.21879007642808,
        "Longitude(deg)": -164.9093655711106,
        "Mean Anomaly(deg)": -5.862302736767488,
        "RAAN(deg)": 299.9902100743565,
        "Satellite Name": "Constellation 1 1341",
        "Satellite Number": 1341,
        "Semi-Major Axis(m)": 7083131.272910544,
        "Time(s)": 173
    },
    {
        "Altitude(m)": 704068.3202905894,
        "Argument of Periapsis(deg)": 0.010430953086700577,
        "Eccentricity": 0.0,
        "Inclination(deg)": 45.0,
        "Latitude(deg)": -4.175699150426607,
        "Longitude(deg)": -164.87039459872005,
        "Mean Anomaly(deg)": -5.801601596517601,
        "RAAN(deg)": 299.9901534851909,
        "Satellite Name": "Constellation 1 1341",
        "Satellite Number": 1341,
        "Semi-Major Axis(m)": 7083131.272910544,
        "Time(s)": 174
    },
    {
        "Altitude(m)": 704060.7701440195,
        "Argument of Periapsis(deg)": 0.010490901092945983,
        "Eccentricity": 0.0,
        "Inclination(deg)": 45.0,
        "Latitude(deg)": -4.132605731528964,
        "Longitude(deg)": -164.83142824408097,
        "Mean Anomaly(deg)": -5.740900456267715,
        "RAAN(deg)": 299.99009689602536,
        "Satellite Name": "Constellation 1 1341",
        "Satellite Number": 1341,
        "Semi-Major Axis(m)": 7083131.272910544,
        "Time(s)": 175
    },
    {
        "Altitude(m)": 704053.2396140852,
        "Argument of Periapsis(deg)": 0.010550849099191389,
        "Eccentricity": 0.0,
        "Inclination(deg)": 45.0,
        "Latitude(deg)": -4.089509845062162,
        "Longitude(deg)": -164.7924664584339,
        "Mean Anomaly(deg)": -5.680199316017777,
        "RAAN(deg)": 299.9900403068598,
        "Satellite Name": "Constellation 1 1341",
        "Satellite Number": 1341,
        "Semi-Major Axis(m)": 7083131.272910544,
        "Time(s)": 176
    },
    {
        "Altitude(m)": 704045.7287160129,
        "Argument of Periapsis(deg)": 0.010610797105436795,
        "Eccentricity": 0.0,
        "Inclination(deg)": 45.0,
        "Latitude(deg)": -4.046411516344976,
        "Longitude(deg)": -164.75350919302934,
        "Mean Anomaly(deg)": -5.6194981757678395,
        "RAAN(deg)": 299.98998371769426,
        "Satellite Name": "Constellation 1 1341",
        "Satellite Number": 1341,
        "Semi-Major Axis(m)": 7083131.272910544,
        "Time(s)": 177
    },
    {
        "Altitude(m)": 704038.2374649313,
        "Argument of Periapsis(deg)": 0.0106707451116822,
        "Eccentricity": 0.0,
        "Inclination(deg)": 45.0,
        "Latitude(deg)": -4.003310770687552,
        "Longitude(deg)": -164.71455656722455,
        "Mean Anomaly(deg)": -5.558797035518004,
        "RAAN(deg)": 299.9899271285287,
        "Satellite Name": "Constellation 1 1341",
        "Satellite Number": 1341,
        "Semi-Major Axis(m)": 7083131.272910544,
        "Time(s)": 178
    },
    {
        "Altitude(m)": 704030.7658758711,
        "Argument of Periapsis(deg)": 0.010730693117927606,
        "Eccentricity": 0.0,
        "Inclination(deg)": 45.0,
        "Latitude(deg)": -3.9602076333925447,
        "Longitude(deg)": -164.67560819609514,
        "Mean Anomaly(deg)": -5.498095895268067,
        "RAAN(deg)": 299.98987053936304,
        "Satellite Name": "Constellation 1 1341",
        "Satellite Number": 1341,
        "Semi-Major Axis(m)": 7083131.272910544,
        "Time(s)": 179
    },
    {
        "Altitude(m)": 704023.31396378,
        "Argument of Periapsis(deg)": 0.01079064112417301,
        "Eccentricity": 0.0,
        "Inclination(deg)": 45.0,
        "Latitude(deg)": -3.9171021297536557,
        "Longitude(deg)": -164.63666419901747,
        "Mean Anomaly(deg)": -5.437394755018129,
        "RAAN(deg)": 299.9898139501975,
        "Satellite Name": "Constellation 1 1341",
        "Satellite Number": 1341,
        "Semi-Major Axis(m)": 7083131.272910544,
        "Time(s)": 180
    },
    {
        "Altitude(m)": 704015.8817435154,
        "Argument of Periapsis(deg)": 0.010850589130418416,
        "Eccentricity": 0.0,
        "Inclination(deg)": 45.0,
        "Latitude(deg)": -3.873994285056948,
        "Longitude(deg)": -164.59772452728058,
        "Mean Anomaly(deg)": -5.3766936147682935,
        "RAAN(deg)": 299.98975736103193,
        "Satellite Name": "Constellation 1 1341",
        "Satellite Number": 1341,
        "Semi-Major Axis(m)": 7083131.272910544,
        "Time(s)": 181
    },
    {
        "Altitude(m)": 704008.4692298399,
        "Argument of Periapsis(deg)": 0.01091053713666382,
        "Eccentricity": 0.0,
        "Inclination(deg)": 45.0,
        "Latitude(deg)": -3.83088412458035,
        "Longitude(deg)": -164.55878913218237,
        "Mean Anomaly(deg)": -5.315992474518406,
        "RAAN(deg)": 299.98970077186635,
        "Satellite Name": "Constellation 1 1341",
        "Satellite Number": 1341,
        "Semi-Major Axis(m)": 7083131.272910544,
        "Time(s)": 182
    },
    {
        "Altitude(m)": 704001.0764374202,
        "Argument of Periapsis(deg)": 0.010970485142909228,
        "Eccentricity": 0.0,
        "Inclination(deg)": 45.0,
        "Latitude(deg)": -3.7877716735939315,
        "Longitude(deg)": -164.5198579650302,
        "Mean Anomaly(deg)": -5.25529133426847,
        "RAAN(deg)": 299.98964418270083,
        "Satellite Name": "Constellation 1 1341",
        "Satellite Number": 1341,
        "Semi-Major Axis(m)": 7083131.272910544,
        "Time(s)": 183
    },
    {
        "Altitude(m)": 703993.7033808414,
        "Argument of Periapsis(deg)": 0.011030433149154634,
        "Eccentricity": 0.0,
        "Inclination(deg)": 45.0,
        "Latitude(deg)": -3.7446569573601627,
        "Longitude(deg)": -164.48093097714076,
        "Mean Anomaly(deg)": -5.194590194018583,
        "RAAN(deg)": 299.9895875935352,
        "Satellite Name": "Constellation 1 1341",
        "Satellite Number": 1341,
        "Semi-Major Axis(m)": 7083131.272910544,
        "Time(s)": 184
    },
    {
        "Altitude(m)": 703986.3500745955,
        "Argument of Periapsis(deg)": 0.01109038115540004,
        "Eccentricity": 0.0,
        "Inclination(deg)": 45.0,
        "Latitude(deg)": -3.7015400011334294,
        "Longitude(deg)": -164.44200828793637,
        "Mean Anomaly(deg)": -5.133889053768748,
        "RAAN(deg)": 299.98953100436967,
        "Satellite Name": "Constellation 1 1341",
        "Satellite Number": 1341,
        "Semi-Major Axis(m)": 7083131.272910544,
        "Time(s)": 185
    },
    {
        "Altitude(m)": 703979.0165330808,
        "Argument of Periapsis(deg)": 0.011150329161645444,
        "Eccentricity": 0.0,
        "Inclination(deg)": 45.0,
        "Latitude(deg)": -3.658420830161327,
        "Longitude(deg)": -164.40308951255741,
        "Mean Anomaly(deg)": -5.073187913518759,
        "RAAN(deg)": 299.9894744152041,
        "Satellite Name": "Constellation 1 1341",
        "Satellite Number": 1341,
        "Semi-Major Axis(m)": 7083131.272910544,
        "Time(s)": 186
    },
    {
        "Altitude(m)": 703971.7027705992,
        "Argument of Periapsis(deg)": 0.01121027716789085,
        "Eccentricity": 0.0,
        "Inclination(deg)": 45.0,
        "Latitude(deg)": -3.615299469683306,
        "Longitude(deg)": -164.3641747704443,
        "Mean Anomaly(deg)": -5.012486773268924,
        "RAAN(deg)": 299.9894178260385,
        "Satellite Name": "Constellation 1 1341",
        "Satellite Number": 1341,
        "Semi-Major Axis(m)": 7083131.272910544,
        "Time(s)": 187
    },
    {
        "Altitude(m)": 703964.4088013781,
        "Argument of Periapsis(deg)": 0.011270225174136258,
        "Eccentricity": 0.0,
        "Inclination(deg)": 45.0,
        "Latitude(deg)": -3.5721759449314123,
        "Longitude(deg)": -164.3252640129486,
        "Mean Anomaly(deg)": -4.951785633018987,
        "RAAN(deg)": 299.989361236873,
        "Satellite Name": "Constellation 1 1341",
        "Satellite Number": 1341,
        "Semi-Major Axis(m)": 7083131.272910544,
        "Time(s)": 188
    },
    {
        "Altitude(m)": 703957.1346395325,
        "Argument of Periapsis(deg)": 0.011330173180381662,
        "Eccentricity": 0.0,
        "Inclination(deg)": 45.0,
        "Latitude(deg)": -3.529050281130686,
        "Longitude(deg)": -164.28635719143128,
        "Mean Anomaly(deg)": -4.891084492769151,
        "RAAN(deg)": 299.9893046477074,
        "Satellite Name": "Constellation 1 1341",
        "Satellite Number": 1341,
        "Semi-Major Axis(m)": 7083131.272910544,
        "Time(s)": 189
    }
]